IRIDIUM 33 DEB          
1 34350U 97051ES  17345.96774446  .00000247  00000-0  72573-4 0  9995
2 34350  86.3304 180.7419 0024065  52.9148 107.8367 14.39432555462046
